IRIDIUM 126             
1 42809U 17039G   24317.20943335  .00000713  00000+0  24735-3 0  9993
2 42809  86.3993 236.7958 0002307  85.9582 274.1878 14.34218359386545
IRIDIUM 124             
1 42810U 17039H   24316.46535631  .00000642  00000+0  18495-3 0  9995
2 42810  86.4528 173.9478 0002017  72.5978 287.5443 14.43278636391063
IRIDIUM 128             
1 42811U 17039J   24316.57224543  .00001414  00000+0  49784-3 0  9998
2 42811  86.3939 268.5882 0002494  79.9393 280.2084 14.34213920386475
IRIDIUM 121             
1 42812U 17039K   24316.67031258  .00001205  00000+0  42301-3 0  9995
2 42812  86.3992 237.0443 0002198  80.6831 279.4614 14.34217975386457
IRIDIUM 133             
1 42955U 17061A   24317.16211555  .00001061  00000+0  37174-3 0  9995
2 42955  86.3943 268.4449 0002256  84.6321 275.5132 14.34217490371355
IRIDIUM 100             
1 42956U 17061B   24316.59762131  .00001215  00000+0  42661-3 0  9991
2 42956  86.3937 268.6129 0002653  82.8194 277.3303 14.34215779371296
